#cP2022  3 28  0  0  0.00000000     576 d+D   IGb14 EXT AIUB
## 2203  86400.00000000   300.00000000 59666 0.0000000000000
+   75   G01G02G03G04G05G06G07G08G09G10G11G12G13G14G15G16G17
+        G18G19G20G21G22G23G25G26G27G28G29G30G31G32R01R02R03
+        R04R05R07R08R09R12R13R14R15R17R18R19R21R22R24E01E02
+        E03E04E05E07E08E09E10E11E12E13E14E15E18E19E21E24E25
+        E26E27E30E31E33E34E36  0  0  0  0  0  0  0  0  0  0
++         6  7  6  8  7  6  7  6  6  5  8  7  7  7  7  7  7
++         8  7  7  7  7  7  5  6  6  7  7  6  7  6  8  6  7
++         7  7  7  7  7  7  8  7  7  7  6  9  7  8  7  6  6
++         6  7  6  7  7  6  6  6  6  6  6  6  6  8  6  6  6
++         7  6  7  6  6  7  6  0  0  0  0  0  0  0  0  0  0
%c M  cc GPS ccc cccc cccc cccc cccc ccccc ccccc ccccc ccccc
%c cc cc ccc ccc cccc cccc cccc cccc ccccc ccccc ccccc ccccc
%f  1.2500000  1.025000000  0.00000000000  0.000000000000000
%f  0.0000000  0.000000000  0.00000000000  0.000000000000000
%i    0    0    0    0      0      0      0      0         0
%i    0    0    0    0      0      0      0      0         0
/* Center for Orbit Determination in Europe (CODE)          
/* Ultra-rapid GRE orbits starting year-day 22087 00 hour   
/* Observed/predicted: 24/24 hours (data used up to 087X)   
/* PCV:IGS14      OL/AL:FES2014b NONE     YN ORB:CoN CLK:BRD
*  2022  3 29 16 15  0.00000000
PG01  10191.237916 -20123.320383 -14016.912510    397.344510               P   P
PG02 -21087.978695  14994.662785  -5645.043656   -652.746817               P   P
PG03    948.779881 -15428.752763 -21714.268866   -184.679722               P   P
PG04   1506.939832 -25523.235191  -7020.375801   -180.082860               P   P
PG05 -17355.085178   7904.435960  18388.392492    -76.407324               P   P
PG06 -19380.411136    417.517036 -18127.853603    248.027334               P   P
PG07  -5944.335390 -14928.590544  21471.702160    318.285805               P   P
PG08   7383.423542 -19816.473330  15814.993103    -61.778128               P   P
PG09  -7290.496182 -25274.946332   3474.098468   -346.994119               P   P
PG10  23574.977041  11843.392909   4366.863607   -362.012896               P   P
PG11 -22991.932763  11927.210375  -5859.143028    -53.251402               P   P
PG12  -5670.120631  14060.876424 -22077.297217   -192.285998               P   P
PG13 -12999.220480  12152.821483  19511.673727    285.072940               P   P
PG14 -22590.611301 -13168.921106   4883.958077    -98.296983               P   P
PG15  -5002.483863  21146.233059  14651.128582    -73.039417               P   P
PG16  21033.083169  -2187.277226  16077.194641   -486.091450               P   P
PG17 -13030.669935 -15338.333166 -16876.688447    593.571793               P   P
PG18   4857.803528  14867.151254  21445.885482    208.408946               P   P
PG19 -14652.720056  -7881.678758 -21009.476462    137.422589               P   P
PG20 -23634.909650   3613.818522  11307.754423    516.078396               P   P
PG21  17338.567000 -19370.865820  -2568.894143    159.937031               P   P
PG22  15095.123048   4472.950437 -21010.649654    235.056077               P   P
PG23  16249.596563  15714.504703  14014.427052    -10.816886               P   P
PG25   9246.095797  17187.577233 -18426.812483    304.916362               P   P
PG26  25851.395884   3783.360581   5539.109501    194.609650               P   P
PG27  13176.643522  -8483.938900  21173.809302    169.027313               P   P
PG28 -24443.353523  -9387.972575  -3119.029837    374.667627               P   P
PG29   3949.387658  26132.727608   2246.325531   -497.053170               P   P
PG30 -13824.680292  -8761.046456  21027.710977   -521.220583               P   P
PG31  21215.056682  -2109.420564 -16254.409675   -171.095878               P   P
PG32  15144.813451  11817.884551 -18281.619332    -94.466696               P   P
PR01  17055.507789   9625.328910 -16329.719309      7.437859               P   P
PR02   7306.019138  -8366.577222 -22911.139589    513.995248               P   P
PR03  -5796.651116 -20016.811030 -14622.342418     54.015158               P   P
PR04 -15361.285464 -20291.760359   1683.593360    134.169958               P   P
PR05 -16432.227490  -9434.937724  17081.442557     90.226968               P   P
PR07   6279.431596  20334.120844  14141.917538     33.200718               P   P
PR08  15428.534272  20257.886447  -1652.349703    -64.307201               P   P
PR09 -20069.524083   8877.386036 -13051.888820     46.977921               P   P
PR12  25162.782437   -616.966161  -4186.040490     17.624156               P   P
PR13  20871.960428  -8248.664107  12106.212697    -20.122595               P   P
PR14   3408.240357 -11368.337668  22582.979861     75.915267               P   P
PR15 -15134.232226  -7647.592906  19069.285689     97.198910               P   P
PR17   6990.116528 -23372.175399  -7498.727165    513.425421               P   P
PR18  -3146.534996 -14884.066476 -20442.584404    111.860130               P   P
PR19 -11279.247375   -115.345923 -22879.894094   -183.388170               P   P
PR21  -6296.548579  23040.676632   8927.147087   -289.149539               P   P
PR22   3479.973469  14302.964177  20848.242300   -173.603252               P   P
PR24  14073.216997 -18785.409340  10008.958480     86.624942               P   P
PE01 -27744.558366    597.937676 -10288.735061   -606.170493               P   P
PE02  27708.518251   -692.404620  10410.936490    289.418013               P   P
PE03  16774.596448  -3394.269938 -24148.103927   -542.460583               P   P
PE04  -6639.200281  22366.681907  18226.988420   -995.063760               P   P
PE05  17251.221943  17968.706325 -15984.400567   -195.800598               P   P
PE07  -7697.995781 -28554.720784  -1335.396354   -653.240951               P   P
PE08   6198.317640 -22619.420731 -18059.206437   -503.360306               P   P
PE09   7921.943350  28489.950787   1166.733288   -466.001285               P   P
PE10 -10518.146343  24232.796314  13351.535010   -503.413040               P   P
PE11  -1234.666471  21135.283765  20688.799336   4102.880036               P   P
PE12 -17761.008871  23305.849558   4287.082883   4689.286401               P   P
PE13   1835.357172 -21401.043493 -20355.949557    427.648214               P   P
PE14  -7372.247781 -29396.141756  -5024.936630  -1795.366788               P   P
PE15  17788.252912 -23284.937768  -4136.898047    754.863094               P   P
PE18  -1717.037529  25476.055507  -4871.072144  -1626.903341               P   P
PE19 -17318.606079    539.748975  24008.750005  -2128.973862               P   P
PE21 -26337.961443 -11315.509364   7356.844042   -725.365430               P   P
PE24   8285.494664  17648.133121 -22298.563128   -531.998480               P   P
PE25  26215.229705  11461.653241  -7607.382870   -568.512901               P   P
PE26 -15867.317277  -6198.003097 -24203.721018   -968.838735               P   P
PE27  -9700.253191 -17507.985211  21799.237524   -264.197396               P   P
PE30  13639.638867 -12839.114250  22909.330889   -387.929147               P   P
PE31 -12479.029581  13346.518533 -23284.144806   -494.257545               P   P
PE33 -23179.191072  11445.758131 -14428.763214   -458.106016               P   P
PE34  23169.484502 -11649.927401  14264.615122   -509.316188               P   P
PE36  15066.246922   6981.613293  24505.379014   -352.174807               P   P
EOF
